QIANFAN-81              
1 63167U 25046J   25293.23727715  .00000221  00000+0  32411-3 0  9993
2 63167  88.9786 325.4122 0012624 275.6770  84.2941 13.50988296 40260
QIANFAN-82              
1 63168U 25046K   25293.27049729  .00000195  00000+0  28435-3 0  9991
2 63168  88.9787 325.4524 0010790 285.0898  74.9059 13.50970481 40258
QIANFAN-83              
1 63169U 25046L   25293.28813796  .00000211  00000+0  25829-3 0  9999
2 63169  88.9787 325.3319 0012004 270.9694  89.0088 13.61965013 40321
QIANFAN-84              
1 63170U 25046M   25293.29878396  .00000150  00000+0  21338-3 0  9992
2 63170  88.9787 325.5825 0013742 280.4770  79.4833 13.50987449 40188
QIANFAN-85              
1 63171U 25046N   25293.29518044  .00000205  00000+0  29852-3 0  9994
2 63171  88.9786 325.4547 0011140 283.6627  76.3284 13.50973545 40250
QIANFAN-86              
1 63172U 25046P   25293.30343954  .00000215  00000+0  31461-3 0  9993
2 63172  88.9788 325.3147 0009043 289.2565  70.7607 13.50970513 40338
QIANFAN-87              
1 63173U 25046Q   25293.27460164  .00000175  00000+0  25238-3 0  9993
2 63173  88.9782 325.4314 0009668 283.2166  76.7906 13.50968582 40267
QIANFAN-88              
1 63174U 25046R   25293.29108941  .00000188  00000+0  27266-3 0  9995
2 63174  88.9787 325.3829 0010146 292.7378  67.2700 13.50969674 40299
